{"type":"FeatureCollection","features":[{"type":"Feature","geometry":{"type":"Polygon","coordinates":[[[-77.047891,-12.058199],[-77.047855,-12.05811],[-77.047869,-12.05797],[-77.048032,-12.05798],[-77.048036,-12.057928],[-77.04826,-12.057948],[-77.048275,-12.057949],[-77.04826,-12.058109],[-77.048238,-12.058129],[-77.047904,-12.058229],[-77.047891,-12.058199]]]},"properties":{"ID":"PV11","tipo":"inicial"}},{"type":"Feature","geometry":{"type":"Polygon","coordinates":[[[-77.051533,-12.05673],[-77.051567,-12.056719],[-77.05161,-12.056698],[-77.051599,-12.056656],[-77.051583,-12.056643],[-77.05151,-12.056394],[-77.051464,-12.05624],[-77.051467,-12.056219],[-77.051488,-12.056198],[-77.051496,-12.05619],[-77.05176,-12.056212],[-77.051851,-12.05622],[-77.051873,-12.056223],[-77.051892,-12.056238],[-77.051899,-12.05626],[-77.051912,-12.056305],[-77.051917,-12.056315],[-77.051984,-12.056543],[-77.052054,-12.056759],[-77.052101,-12.056913],[-77.052175,-12.05689],[-77.052182,-12.05691],[-77.052219,-12.056924],[-77.052828,-12.056741],[-77.052911,-12.056717],[-77.052927,-12.056721],[-77.05308,-12.056677],[-77.053135,-12.056658],[-77.053165,-12.056675],[-77.053756,-12.056498],[-77.053944,-12.056442],[-77.053968,-12.056528],[-77.05379,-12.056581],[-77.053817,-12.056675],[-77.053315,-12.056824],[-77.053305,-12.056845],[-77.053157,-12.05689],[-77.05299,-12.056939],[-77.052983,-12.05695],[-77.052641,-12.057051],[-77.052376,-12.05713],[-77.052348,-12.057142],[-77.052288,-12.05716],[-77.052277,-12.057177],[-77.052236,-12.057188],[-77.052224,-12.057184],[-77.051995,-12.057252],[-77.052146,-12.057427],[-77.052045,-12.057521],[-77.051961,-12.057544],[-77.05189,-12.057311],[-77.051744,-12.057356],[-77.051678,-12.057318],[-77.051476,-12.05738],[-77.051204,-12.057463],[-77.050983,-12.057527],[-77.050921,-12.057336],[-77.051464,-12.057175],[-77.051454,-12.057081],[-77.051564,-12.056985],[-77.051589,-12.056968],[-77.051598,-12.056952],[-77.051533,-12.05673]]]},"properties":{"ID":"E11","tipo":"inicial"}},{"type":"Feature","geometry":{"type":"Polygon","coordinates":[[[-77.043697,-12.059979],[-77.043607,-12.059688],[-77.044039,-12.059558],[-77.04409,-12.059723],[-77.044042,-12.059737],[-77.044081,-12.059863],[-77.044069,-12.059886],[-77.04372,-12.059991],[-77.043697,-12.059979]]]},"properties":{"ID":"E12","tipo":"residual"}},{"type":"Feature","geometry":{"type":"Polygon","coordinates":[[[-77.042573,-12.059993],[-77.042585,-12.060034],[-77.042449,-12.060074],[-77.042466,-12.06004],[-77.042484,-12.060021],[-77.042573,-12.059993]]]},"properties":{"ID":"E12","tipo":"residual"}},{"type":"Feature","geometry":{"type":"Polygon","coordinates":[[[-77.043559,-12.059392],[-77.043878,-12.059299],[-77.043886,-12.059303],[-77.043895,-12.059412],[-77.043896,-12.059437],[-77.043894,-12.05944],[-77.043886,-12.059445],[-77.043877,-12.059447],[-77.043871,-12.059449],[-77.043882,-12.059485],[-77.04367,-12.059549],[-77.043659,-12.059513],[-77.043637,-12.05952],[-77.043594,-12.059514],[-77.043576,-12.059457],[-77.043559,-12.059392]]]},"properties":{"ID":"E12","tipo":"residual"}},{"type":"Feature","geometry":{"type":"Polygon","coordinates":[[[-77.044855,-12.059508],[-77.044756,-12.059594],[-77.044675,-12.059495],[-77.044649,-12.059465],[-77.044699,-12.059441],[-77.044777,-12.059415],[-77.044855,-12.059508]]]},"properties":{"ID":"E12","tipo":"residual"}},{"type":"Feature","geometry":{"type":"Polygon","coordinates":[[[-77.04444,-12.059226],[-77.044469,-12.059187],[-77.044564,-12.059159],[-77.044622,-12.059162],[-77.044631,-12.059217],[-77.044635,-12.059257],[-77.044487,-12.059302],[-77.044474,-12.059264],[-77.044474,-12.059264],[-77.044451,-12.059261],[-77.044442,-12.059243],[-77.04444,-12.059226]]]},"properties":{"ID":"E12","tipo":"residual"}},{"type":"Feature","geometry":{"type":"Polygon","coordinates":[[[-77.043697,-12.059979],[-77.043618,-12.059722],[-77.043406,-12.059786],[-77.043095,-12.059879],[-77.042919,-12.059933],[-77.042871,-12.059788],[-77.043232,-12.059677],[-77.043222,-12.059645],[-77.043228,-12.059643],[-77.043305,-12.05962],[-77.043395,-12.059593],[-77.043496,-12.059562],[-77.043503,-12.059559],[-77.043531,-12.059551],[-77.043523,-12.059527],[-77.043518,-12.059512],[-77.043488,-12.059427],[-77.043562,-12.059401],[-77.043558,-12.059393],[-77.043892,-12.059296],[-77.043891,-12.059288],[-77.043955,-12.059283],[-77.043962,-12.059334],[-77.04398,-12.059391],[-77.044372,-12.059274],[-77.044382,-12.059263],[-77.044384,-12.059212],[-77.044504,-12.059177],[-77.044593,-12.05915],[-77.044624,-12.059156],[-77.044647,-12.059185],[-77.044753,-12.059159],[-77.044797,-12.059149],[-77.044843,-12.05914],[-77.045007,-12.059106],[-77.045217,-12.059042],[-77.045322,-12.05901],[-77.045428,-12.058977],[-77.04549,-12.058959],[-77.045505,-12.058954],[-77.045524,-12.059017],[-77.045543,-12.059077],[-77.045554,-12.059115],[-77.045561,-12.059135],[-77.045481,-12.059158],[-77.045248,-12.059229],[-77.045153,-12.059258],[-77.04487,-12.059344],[-77.044817,-12.059378],[-77.04477,-12.059395],[-77.044776,-12.059415],[-77.044855,-12.059508],[-77.044657,-12.059679],[-77.044503,-12.059482],[-77.044057,-12.059615],[-77.04409,-12.059723],[-77.044042,-12.059737],[-77.044081,-12.059863],[-77.044069,-12.059886],[-77.04372,-12.059991],[-77.043697,-12.059979]]]},"properties":{"ID":"E12","tipo":"liberado"}},{"type":"Feature","geometry":{"type":"Polygon","coordinates":[[[-77.05536,-12.056182],[-77.055363,-12.056193],[-77.055363,-12.056193],[-77.055416,-12.056367],[-77.055244,-12.056501],[-77.055105,-12.056342],[-77.055081,-12.056265],[-77.05536,-12.056182]]]},"properties":{"ID":"PV10","tipo":"residual"}},{"type":"Feature","geometry":{"type":"Polygon","coordinates":[[[-77.055244,-12.056501],[-77.055244,-12.056501],[-77.055216,-12.056523],[-77.055019,-12.056295],[-77.05499,-12.0562],[-77.055731,-12.055981],[-77.055765,-12.056091],[-77.055368,-12.056208],[-77.05536,-12.056182],[-77.055081,-12.056265],[-77.055105,-12.056342],[-77.055244,-12.056501]]]},"properties":{"ID":"PV10","tipo":"liberado"}},{"type":"Feature","geometry":{"type":"Polygon","coordinates":[[[-77.064429,-12.056759],[-77.064088,-12.056691],[-77.064091,-12.056673],[-77.06445,-12.056745],[-77.064424,-12.056891],[-77.064427,-12.056897],[-77.064425,-12.056907],[-77.064403,-12.056902],[-77.064429,-12.056759]]]},"properties":{"ID":"PV09","tipo":"liberado"}},{"type":"Feature","geometry":{"type":"Polygon","coordinates":[[[-77.064709,-12.05699],[-77.064749,-12.056998],[-77.064767,-12.056993],[-77.064784,-12.056983],[-77.064804,-12.056986],[-77.064788,-12.057057],[-77.064896,-12.057081],[-77.064892,-12.057098],[-77.064769,-12.057132],[-77.064132,-12.057003],[-77.064125,-12.057],[-77.064101,-12.056994],[-77.064094,-12.056993],[-77.064077,-12.056986],[-77.064066,-12.056977],[-77.064043,-12.056968],[-77.064058,-12.056887],[-77.064702,-12.057017],[-77.064709,-12.05699]]]},"properties":{"ID":"PV09","tipo":"liberado"}},{"type":"Feature","geometry":{"type":"Polygon","coordinates":[[[-77.064702,-12.057017],[-77.064047,-12.056885],[-77.064047,-12.056885],[-77.064088,-12.056691],[-77.064429,-12.056759],[-77.064403,-12.056902],[-77.064425,-12.056907],[-77.06442,-12.056929],[-77.064709,-12.05699],[-77.064702,-12.057017]]]},"properties":{"ID":"PV09","tipo":"residual"}},{"type":"Feature","geometry":{"type":"Polygon","coordinates":[[[-77.110242,-12.012253],[-77.110578,-12.011537],[-77.110684,-12.011497],[-77.110812,-12.011436],[-77.110891,-12.01138],[-77.110913,-12.011339],[-77.110972,-12.011292],[-77.111076,-12.011189],[-77.111137,-12.011117],[-77.111197,-12.011033],[-77.111314,-12.010855],[-77.111382,-12.010752],[-77.111427,-12.010665],[-77.111498,-12.010522],[-77.111588,-12.010337],[-77.11162,-12.010269],[-77.111847,-12.010382],[-77.111832,-12.010414],[-77.111725,-12.010636],[-77.111571,-12.010955],[-77.111532,-12.011034],[-77.111437,-12.011224],[-77.111373,-12.011356],[-77.111288,-12.011528],[-77.111189,-12.011738],[-77.111134,-12.011932],[-77.111087,-12.011977],[-77.11106,-12.012013],[-77.111029,-12.012075],[-77.111079,-12.012098],[-77.111045,-12.012226],[-77.111042,-12.012322],[-77.111053,-12.012397],[-77.111077,-12.012532],[-77.111086,-12.0126],[-77.111078,-12.012645],[-77.111039,-12.012728],[-77.110942,-12.012923],[-77.110898,-12.012992],[-77.110793,-12.013079],[-77.11057,-12.013256],[-77.110457,-12.01321],[-77.110327,-12.013458],[-77.110261,-12.013594],[-77.109943,-12.014249],[-77.109923,-12.014278],[-77.109688,-12.014164],[-77.109892,-12.013749],[-77.109999,-12.013538],[-77.110029,-12.013451],[-77.110109,-12.01323],[-77.110198,-12.012983],[-77.110238,-12.012874],[-77.11027,-12.012784],[-77.110279,-12.012744],[-77.110294,-12.012638],[-77.110298,-12.012536],[-77.110292,-12.012435],[-77.110282,-12.012386],[-77.11026,-12.01231],[-77.110242,-12.012253]]]},"properties":{"ID":"E4-03","tipo":"inicial"}},{"type":"Feature","geometry":{"type":"Polygon","coordinates":[[[-77.018094,-12.061814],[-77.018119,-12.061818],[-77.018285,-12.061839],[-77.018264,-12.062007],[-77.018071,-12.061983],[-77.018072,-12.06198],[-77.018094,-12.061814]]]},"properties":{"ID":"PV15","tipo":"residual"}},{"type":"Feature","geometry":{"type":"Polygon","coordinates":[[[-77.018094,-12.061814],[-77.018071,-12.061983],[-77.018023,-12.061977],[-77.017984,-12.062267],[-77.017948,-12.062525],[-77.017891,-12.062518],[-77.017848,-12.062411],[-77.017914,-12.061897],[-77.01794,-12.061701],[-77.017993,-12.061666],[-77.018404,-12.061718],[-77.018467,-12.061798],[-77.018437,-12.062028],[-77.018264,-12.062007],[-77.018285,-12.061839],[-77.018094,-12.061814]]]},"properties":{"ID":"PV15","tipo":"liberado"}},{"type":"Feature","geometry":{"type":"Polygon","coordinates":[[[-77.122716,-11.998166],[-77.122892,-11.998588],[-77.122869,-11.998593],[-77.122779,-11.998612],[-77.122727,-11.998628],[-77.122681,-11.998665],[-77.122509,-11.99873],[-77.122168,-11.998857],[-77.122008,-11.998944],[-77.12197,-11.998972],[-77.12156,-11.999128],[-77.121531,-11.999133],[-77.121499,-11.999135],[-77.121389,-11.999112],[-77.121342,-11.999108],[-77.121303,-11.999085],[-77.121275,-11.999079],[-77.121214,-11.999024],[-77.121169,-11.999072],[-77.121119,-11.999078],[-77.121088,-11.999089],[-77.121057,-11.999107],[-77.12097,-11.999127],[-77.120851,-11.999148],[-77.120798,-11.999141],[-77.120753,-11.999028],[-77.120733,-11.999037],[-77.120703,-11.998958],[-77.120698,-11.998903],[-77.120715,-11.998863],[-77.120762,-11.998824],[-77.120961,-11.998745],[-77.121091,-11.998735],[-77.121108,-11.998786],[-77.121212,-11.998748],[-77.121188,-11.998657],[-77.12119,-11.998642],[-77.121605,-11.998498],[-77.121786,-11.998439],[-77.121862,-11.998443],[-77.121972,-11.998434],[-77.122029,-11.998405],[-77.122203,-11.99834],[-77.122629,-11.998177],[-77.122716,-11.998166]]]},"properties":{"ID":"E4-01","tipo":"inicial"}},{"type":"Feature","geometry":{"type":"Polygon","coordinates":[[[-77.038389,-12.059771],[-77.038742,-12.059798],[-77.03876,-12.059806],[-77.038834,-12.059813],[-77.03883,-12.059844],[-77.038863,-12.05987],[-77.038943,-12.059894],[-77.038919,-12.060112],[-77.038766,-12.0601],[-77.03848,-12.060068],[-77.038304,-12.060051],[-77.03814,-12.060038],[-77.038062,-12.060023],[-77.038045,-12.059994],[-77.03807,-12.059742],[-77.03824,-12.059758],[-77.038237,-12.059796],[-77.038387,-12.05981],[-77.038389,-12.059771]]]},"properties":{"ID":"E13","tipo":"liberado"}},{"type":"Feature","geometry":{"type":"Polygon","coordinates":[[[-77.03749,-12.059705],[-77.037496,-12.059639],[-77.037517,-12.059618],[-77.037539,-12.05942],[-77.037583,-12.059422],[-77.037659,-12.05929],[-77.037677,-12.059195],[-77.037692,-12.059121],[-77.037748,-12.059127],[-77.037792,-12.059131],[-77.037813,-12.059134],[-77.037811,-12.059156],[-77.037786,-12.059399],[-77.037793,-12.059427],[-77.037774,-12.059672],[-77.037738,-12.059704],[-77.037734,-12.059743],[-77.037731,-12.059783],[-77.037484,-12.059761],[-77.03749,-12.059705]]]},"properties":{"ID":"E13","tipo":"residual"}},{"type":"Feature","geometry":{"type":"Polygon","coordinates":[[[-77.036259,-12.059957],[-77.036239,-12.059955],[-77.036203,-12.05995],[-77.036237,-12.059697],[-77.036272,-12.059702],[-77.036328,-12.059687],[-77.036371,-12.059644],[-77.036484,-12.059696],[-77.036513,-12.059708],[-77.036517,-12.059936],[-77.036478,-12.059948],[-77.036439,-12.05996],[-77.0364,-12.059974],[-77.036368,-12.059986],[-77.036335,-12.059999],[-77.036303,-12.060012],[-77.036259,-12.059957]]]},"properties":{"ID":"E13","tipo":"residual"}},{"type":"Feature","geometry":{"type":"Polygon","coordinates":[[[-77.037292,-12.060065],[-77.037296,-12.06003],[-77.037556,-12.060059],[-77.037568,-12.06006],[-77.03761,-12.060066],[-77.037687,-12.060075],[-77.037709,-12.060084],[-77.037707,-12.060127],[-77.037334,-12.060095],[-77.037292,-12.060065]]]},"properties":{"ID":"E13","tipo":"residual"}},{"type":"Feature","geometry":{"type":"Polygon","coordinates":[[[-77.038212,-12.06012],[-77.038361,-12.060134],[-77.038359,-12.060172],[-77.038209,-12.060158],[-77.038212,-12.06012]]]},"properties":{"ID":"E13","tipo":"residual"}},{"type":"Feature","geometry":{"type":"Polygon","coordinates":[[[-77.03824,-12.059758],[-77.038389,-12.059771],[-77.038387,-12.05981],[-77.038237,-12.059796],[-77.03824,-12.059758]]]},"properties":{"ID":"E13","tipo":"residual"}},{"type":"Feature","geometry":{"type":"Polygon","coordinates":[[[-77.036259,-12.059957],[-77.036303,-12.060012],[-77.036335,-12.059999],[-77.036368,-12.059986],[-77.0364,-12.059974],[-77.036439,-12.05996],[-77.036478,-12.059948],[-77.036517,-12.059936],[-77.036513,-12.059708],[-77.036484,-12.059696],[-77.036371,-12.059644],[-77.036328,-12.059687],[-77.036272,-12.059702],[-77.036254,-12.059699],[-77.036258,-12.059695],[-77.036278,-12.059696],[-77.036284,-12.05965],[-77.036245,-12.059628],[-77.036239,-12.059594],[-77.036219,-12.05946],[-77.03622,-12.059446],[-77.036224,-12.059428],[-77.036243,-12.059407],[-77.036318,-12.059363],[-77.036334,-12.059358],[-77.036351,-12.05936],[-77.036398,-12.059407],[-77.036454,-12.059465],[-77.036497,-12.059517],[-77.03651,-12.059531],[-77.036585,-12.059574],[-77.03664,-12.059601],[-77.036693,-12.059621],[-77.036755,-12.059644],[-77.03685,-12.059667],[-77.036911,-12.059681],[-77.03705,-12.059693],[-77.037284,-12.059714],[-77.03749,-12.059705],[-77.037484,-12.059761],[-77.037731,-12.059783],[-77.037734,-12.059743],[-77.037738,-12.059704],[-77.037774,-12.059672],[-77.037774,-12.059697],[-77.037784,-12.059736],[-77.037781,-12.059847],[-77.03778,-12.059883],[-77.037776,-12.059905],[-77.037769,-12.059993],[-77.037757,-12.059999],[-77.037589,-12.059981],[-77.037378,-12.059958],[-77.037311,-12.059949],[-77.037068,-12.059935],[-77.036938,-12.059929],[-77.036892,-12.059931],[-77.036789,-12.059938],[-77.036758,-12.059942],[-77.0367,-12.059956],[-77.036661,-12.059967],[-77.036558,-12.06],[-77.036494,-12.060019],[-77.036448,-12.060033],[-77.036395,-12.060046],[-77.036346,-12.060055],[-77.036331,-12.060056],[-77.036288,-12.060018],[-77.036259,-12.059957]]]},"properties":{"ID":"E13","tipo":"liberado"}},{"type":"Feature","geometry":{"type":"Polygon","coordinates":[[[-77.041444,-12.06],[-77.041484,-12.059971],[-77.04153,-12.060034],[-77.04149,-12.060063],[-77.041444,-12.06]]]},"properties":{"ID":"PV12","tipo":"residual"}},{"type":"Feature","geometry":{"type":"Polygon","coordinates":[[[-77.041352,-12.060041],[-77.041311,-12.059984],[-77.041375,-12.059936],[-77.041421,-12.059997],[-77.041475,-12.060072],[-77.041411,-12.060121],[-77.041402,-12.060107],[-77.041352,-12.060041]]]},"properties":{"ID":"PV12","tipo":"residual"}},{"type":"Feature","geometry":{"type":"Polygon","coordinates":[[[-77.041335,-12.060061],[-77.041355,-12.060047],[-77.041371,-12.060069],[-77.041351,-12.060083],[-77.041335,-12.060061]]]},"properties":{"ID":"PV12","tipo":"residual"}},{"type":"Feature","geometry":{"type":"Polygon","coordinates":[[[-77.04138,-12.06008],[-77.041393,-12.060097],[-77.041377,-12.060108],[-77.041365,-12.060092],[-77.04138,-12.06008]]]},"properties":{"ID":"PV12","tipo":"residual"}},{"type":"Feature","geometry":{"type":"Polygon","coordinates":[[[-77.041383,-12.06011],[-77.041395,-12.060101],[-77.041401,-12.06011],[-77.041389,-12.060118],[-77.041383,-12.06011]]]},"properties":{"ID":"PV12","tipo":"residual"}},{"type":"Feature","geometry":{"type":"Polygon","coordinates":[[[-77.041122,-12.060233],[-77.041127,-12.060169],[-77.041137,-12.060119],[-77.041163,-12.060055],[-77.041206,-12.05999],[-77.041247,-12.059939],[-77.041297,-12.059897],[-77.041334,-12.059874],[-77.041365,-12.059857],[-77.041425,-12.059834],[-77.041459,-12.059825],[-77.041504,-12.059817],[-77.041545,-12.059813],[-77.041589,-12.059812],[-77.041672,-12.059823],[-77.041665,-12.059873],[-77.04178,-12.059871],[-77.041822,-12.059901],[-77.041881,-12.059953],[-77.041899,-12.059972],[-77.041914,-12.060083],[-77.041735,-12.060118],[-77.041665,-12.060125],[-77.041574,-12.06013],[-77.041542,-12.060131],[-77.041515,-12.060138],[-77.041492,-12.06015],[-77.04148,-12.060159],[-77.041462,-12.06018],[-77.041449,-12.060204],[-77.041444,-12.060222],[-77.041122,-12.060233]]]},"properties":{"ID":"PV12","tipo":"liberado"}},{"type":"Feature","geometry":{"type":"Polygon","coordinates":[[[-77.034851,-12.062044],[-77.034993,-12.062102],[-77.034862,-12.062442],[-77.034719,-12.062389],[-77.034851,-12.062044]]]},"properties":{"ID":"PV13","tipo":"residual"}},{"type":"Feature","geometry":{"type":"Polygon","coordinates":[[[-77.041122,-12.060233],[-77.041127,-12.060169],[-77.041137,-12.060119],[-77.041163,-12.060055],[-77.041206,-12.05999],[-77.041247,-12.059939],[-77.041297,-12.059897],[-77.041334,-12.059874],[-77.041365,-12.059857],[-77.041425,-12.059834],[-77.041459,-12.059825],[-77.041504,-12.059817],[-77.041545,-12.059813],[-77.041589,-12.059812],[-77.041672,-12.059823],[-77.041665,-12.059873],[-77.04178,-12.059871],[-77.041822,-12.059901],[-77.041881,-12.059953],[-77.041899,-12.059972],[-77.041914,-12.060083],[-77.041735,-12.060118],[-77.041665,-12.060125],[-77.041574,-12.06013],[-77.041542,-12.060131],[-77.041515,-12.060138],[-77.041492,-12.06015],[-77.04148,-12.060159],[-77.041462,-12.06018],[-77.041449,-12.060204],[-77.041444,-12.060222],[-77.041122,-12.060233]]]},"properties":{"ID":"PV12","tipo":"inicial"}},{"type":"Feature","geometry":{"type":"Polygon","coordinates":[[[-77.034719,-12.062389],[-77.03463,-12.062641],[-77.034563,-12.062619],[-77.034595,-12.062538],[-77.034785,-12.062018],[-77.034851,-12.062044],[-77.034719,-12.062389]]]},"properties":{"ID":"PV13","tipo":"liberado"}},{"type":"Feature","geometry":{"type":"Polygon","coordinates":[[[-77.125618,-11.996484],[-77.125801,-11.996526],[-77.125832,-11.996463],[-77.125869,-11.996471],[-77.125915,-11.996491],[-77.125964,-11.996523],[-77.126011,-11.996566],[-77.126041,-11.996606],[-77.126071,-11.996672],[-77.12609,-11.996725],[-77.126104,-11.996803],[-77.12611,-11.996862],[-77.126106,-11.996939],[-77.126093,-11.997008],[-77.126067,-11.997097],[-77.126025,-11.997129],[-77.125981,-11.997149],[-77.125896,-11.997179],[-77.125821,-11.997189],[-77.125736,-11.99719],[-77.125662,-11.997181],[-77.125576,-11.997155],[-77.125521,-11.997112],[-77.125485,-11.997061],[-77.125465,-11.996989],[-77.125461,-11.996926],[-77.125462,-11.996842],[-77.12547,-11.996759],[-77.125489,-11.996673],[-77.125518,-11.996606],[-77.125552,-11.996548],[-77.125595,-11.996502],[-77.125618,-11.996484]]]},"properties":{"ID":"PV4-01BIS","tipo":"inicial"}},{"type":"Feature","geometry":{"type":"Polygon","coordinates":[[[-77.122716,-11.998166],[-77.122813,-11.998154],[-77.123259,-11.997981],[-77.124053,-11.997688],[-77.124415,-11.997554],[-77.12474,-11.997429],[-77.124823,-11.997346],[-77.124947,-11.997218],[-77.125043,-11.997097],[-77.125106,-11.997029],[-77.125193,-11.996913],[-77.125249,-11.996916],[-77.125262,-11.996821],[-77.12532,-11.996746],[-77.125359,-11.996755],[-77.125343,-11.996805],[-77.125327,-11.996934],[-77.125332,-11.997006],[-77.125351,-11.997099],[-77.12539,-11.997187],[-77.125443,-11.997261],[-77.125505,-11.997323],[-77.125601,-11.997384],[-77.125673,-11.997412],[-77.125674,-11.997472],[-77.125514,-11.997535],[-77.125401,-11.997524],[-77.125265,-11.997499],[-77.125259,-11.997544],[-77.125398,-11.997562],[-77.125398,-11.997571],[-77.125255,-11.997608],[-77.125133,-11.997653],[-77.125037,-11.997702],[-77.124941,-11.997751],[-77.124657,-11.997916],[-77.124525,-11.997981],[-77.124253,-11.998085],[-77.123631,-11.998314],[-77.123378,-11.998404],[-77.123359,-11.998381],[-77.123312,-11.998362],[-77.123184,-11.998475],[-77.122901,-11.998586],[-77.122892,-11.998588],[-77.122716,-11.998166]]]},"properties":{"ID":"PV4-01BIS","tipo":"inicial"}},{"type":"Feature","geometry":{"type":"Polygon","coordinates":[[[-77.116148,-12.002349],[-77.115817,-12.003021],[-77.115713,-12.002969],[-77.115644,-12.002742],[-77.115655,-12.002672],[-77.115676,-12.002619],[-77.115738,-12.0025],[-77.115788,-12.002405],[-77.115838,-12.002321],[-77.11588,-12.002272],[-77.115972,-12.002195],[-77.116078,-12.002094],[-77.116158,-12.002127],[-77.116053,-12.002303],[-77.116148,-12.002349]]]},"properties":{"ID":"E4-02","tipo":"Inicial"}},{"type":"Feature","geometry":{"type":"Polygon","coordinates":[[[-77.115949,-12.001578],[-77.116021,-12.001613],[-77.115997,-12.001679],[-77.11598,-12.001717],[-77.115921,-12.001833],[-77.11586,-12.001948],[-77.115806,-12.002053],[-77.115762,-12.002127],[-77.115723,-12.002173],[-77.115684,-12.002219],[-77.115644,-12.002275],[-77.115557,-12.002445],[-77.115495,-12.002566],[-77.115464,-12.002643],[-77.115453,-12.002693],[-77.115447,-12.00276],[-77.115462,-12.002863],[-77.115472,-12.002924],[-77.115467,-12.002974],[-77.115444,-12.003084],[-77.11544,-12.003152],[-77.115418,-12.003201],[-77.115294,-12.003449],[-77.115237,-12.003555],[-77.115188,-12.00362],[-77.11514,-12.003678],[-77.11505,-12.003764],[-77.114987,-12.003822],[-77.11493,-12.003876],[-77.11489,-12.003925],[-77.114865,-12.003971],[-77.114801,-12.004086],[-77.114751,-12.004185],[-77.114697,-12.004299],[-77.114537,-12.00464],[-77.114411,-12.004573],[-77.114686,-12.004006],[-77.114836,-12.003698],[-77.11493,-12.003511],[-77.114891,-12.003462],[-77.115013,-12.003211],[-77.115161,-12.002908],[-77.11537,-12.002475],[-77.115487,-12.002241],[-77.115543,-12.002268],[-77.115642,-12.002071],[-77.115754,-12.001871],[-77.115816,-12.001765],[-77.115949,-12.001578]]]},"properties":{"ID":"E4-02","tipo":"Inicial"}},{"type":"Feature","geometry":{"type":"Polygon","coordinates":[[[-77.106974,-12.02111],[-77.106937,-12.021216],[-77.106838,-12.021181],[-77.10681,-12.021196],[-77.106756,-12.02144],[-77.106665,-12.02142],[-77.106722,-12.021173],[-77.106748,-12.021083],[-77.106766,-12.021035],[-77.106974,-12.02111]]]},"properties":{"ID":"E4-04","tipo":"inicial"}},{"type":"Feature","geometry":{"type":"Polygon","coordinates":[[[-77.105185,-12.021346],[-77.105204,-12.021308],[-77.105219,-12.021314],[-77.105265,-12.021229],[-77.105551,-12.021365],[-77.105995,-12.020973],[-77.106164,-12.020823],[-77.106183,-12.020818],[-77.106287,-12.020716],[-77.106425,-12.020533],[-77.106561,-12.020361],[-77.106618,-12.020261],[-77.106678,-12.020161],[-77.106843,-12.019873],[-77.107004,-12.019576],[-77.107182,-12.019252],[-77.107306,-12.019017],[-77.107436,-12.018782],[-77.107377,-12.018744],[-77.107412,-12.018702],[-77.107504,-12.018767],[-77.107487,-12.018809],[-77.107452,-12.018854],[-77.107517,-12.018886],[-77.107495,-12.018941],[-77.10749,-12.018983],[-77.107495,-12.019168],[-77.107487,-12.019242],[-77.107469,-12.019307],[-77.107449,-12.019381],[-77.107412,-12.019472],[-77.107259,-12.019783],[-77.107198,-12.019905],[-77.107167,-12.019958],[-77.1071,-12.020052],[-77.107043,-12.020132],[-77.106975,-12.02026],[-77.106895,-12.02041],[-77.106795,-12.02062],[-77.106661,-12.020903],[-77.106542,-12.021131],[-77.106506,-12.021178],[-77.106449,-12.021227],[-77.106429,-12.021208],[-77.106357,-12.02124],[-77.106339,-12.021233],[-77.106267,-12.021176],[-77.106307,-12.021131],[-77.106316,-12.021141],[-77.10634,-12.021121],[-77.106267,-12.021046],[-77.10626,-12.021024],[-77.106285,-12.020977],[-77.106248,-12.020957],[-77.105678,-12.021438],[-77.10569,-12.021452],[-77.105562,-12.021551],[-77.105383,-12.021436],[-77.105185,-12.021346]]]},"properties":{"ID":"E4-04","tipo":"residual"}},{"type":"Feature","geometry":{"type":"Polygon","coordinates":[[[-77.105457,-12.0217],[-77.10545,-12.0217],[-77.105367,-12.02169],[-77.105339,-12.021675],[-77.105195,-12.021597],[-77.10512,-12.021557],[-77.105091,-12.021525],[-77.105115,-12.021474],[-77.105229,-12.021504],[-77.10534,-12.021558],[-77.105438,-12.021635],[-77.105451,-12.021665],[-77.105457,-12.0217]]]},"properties":{"ID":"E4-04","tipo":"residual"}},{"type":"Feature","geometry":{"type":"Polygon","coordinates":[[[-77.105185,-12.021346],[-77.105383,-12.021436],[-77.105562,-12.021551],[-77.105467,-12.021705],[-77.105457,-12.0217],[-77.105451,-12.021665],[-77.105438,-12.021635],[-77.10534,-12.021558],[-77.105229,-12.021504],[-77.105115,-12.021474],[-77.105185,-12.021346]]]},"properties":{"ID":"E4-04","tipo":"liberado"}},{"type":"Feature","geometry":{"type":"Polygon","coordinates":[[[-77.104891,-12.024342],[-77.104901,-12.024358],[-77.104909,-12.024384],[-77.104902,-12.02442],[-77.104849,-12.024515],[-77.104671,-12.02483],[-77.104505,-12.025126],[-77.104489,-12.025132],[-77.104432,-12.025105],[-77.104376,-12.025203],[-77.104271,-12.025229],[-77.104232,-12.025231],[-77.104126,-12.025223],[-77.104083,-12.025217],[-77.104112,-12.025165],[-77.104097,-12.025158],[-77.104404,-12.024605],[-77.104263,-12.02453],[-77.104441,-12.024208],[-77.104585,-12.024286],[-77.104628,-12.024278],[-77.104656,-12.024223],[-77.104678,-12.024219],[-77.104891,-12.024342]]]},"properties":{"ID":"PV4-04","tipo":"inicial"}},{"type":"Feature","geometry":{"type":"Polygon","coordinates":[[[-77.10421,-12.025432],[-77.104207,-12.025454],[-77.104167,-12.025522],[-77.104121,-12.025605],[-77.104146,-12.025645],[-77.104162,-12.025704],[-77.104133,-12.025783],[-77.104046,-12.025935],[-77.10379,-12.026385],[-77.103718,-12.026503],[-77.103516,-12.026886],[-77.103331,-12.027247],[-77.103267,-12.027362],[-77.103225,-12.027421],[-77.10317,-12.027489],[-77.103126,-12.027539],[-77.102993,-12.027478],[-77.10312,-12.027233],[-77.103081,-12.027189],[-77.10307,-12.02716],[-77.102994,-12.027116],[-77.102997,-12.027108],[-77.102989,-12.027088],[-77.10293,-12.027063],[-77.102987,-12.026959],[-77.102983,-12.026937],[-77.103174,-12.02663],[-77.103244,-12.026664],[-77.103431,-12.026333],[-77.103538,-12.026145],[-77.103668,-12.025918],[-77.103809,-12.025674],[-77.104007,-12.025315],[-77.10421,-12.025432]]]},"properties":{"ID":"E4-05","tipo":"inicial"}},{"type":"Feature","geometry":{"type":"Polygon","coordinates":[[[-77.100289,-12.034181],[-77.100253,-12.03426],[-77.100358,-12.034305],[-77.100239,-12.034573],[-77.100174,-12.034801],[-77.100112,-12.034785],[-77.099998,-12.035179],[-77.100044,-12.035189],[-77.100024,-12.035275],[-77.100049,-12.035285],[-77.099954,-12.03564],[-77.099877,-12.035627],[-77.099849,-12.035647],[-77.099854,-12.035747],[-77.099761,-12.035752],[-77.099777,-12.035912],[-77.099758,-12.035914],[-77.099752,-12.035893],[-77.099605,-12.03581],[-77.099598,-12.035826],[-77.099547,-12.035802],[-77.099528,-12.035716],[-77.099513,-12.035587],[-77.099516,-12.035531],[-77.099524,-12.035488],[-77.099552,-12.035373],[-77.099621,-12.03515],[-77.099658,-12.035012],[-77.099734,-12.034729],[-77.099795,-12.034525],[-77.099842,-12.034393],[-77.099897,-12.034231],[-77.099972,-12.034047],[-77.100077,-12.03382],[-77.100186,-12.033577],[-77.100273,-12.033399],[-77.100415,-12.033465],[-77.100317,-12.033656],[-77.100395,-12.033692],[-77.100379,-12.033731],[-77.10041,-12.03377],[-77.100309,-12.033987],[-77.100263,-12.033985],[-77.1002,-12.034138],[-77.100289,-12.034181]]]},"properties":{"ID":"E4-06","tipo":"inicial"}},{"type":"Feature","geometry":{"type":"Polygon","coordinates":[[[-77.098562,-12.044743],[-77.098554,-12.044849],[-77.098539,-12.044976],[-77.098546,-12.045053],[-77.098556,-12.045158],[-77.09847,-12.045143],[-77.09837,-12.045051],[-77.098342,-12.045023],[-77.098333,-12.044994],[-77.09833,-12.044971],[-77.098342,-12.044859],[-77.098357,-12.04486],[-77.09836,-12.044813],[-77.098349,-12.044775],[-77.098353,-12.044717],[-77.098562,-12.044743]]]},"properties":{"ID":"E4-06","tipo":"inicial"}},{"type":"Feature","geometry":{"type":"Polygon","coordinates":[[[-77.098656,-12.045114],[-77.098646,-12.045038],[-77.098639,-12.044938],[-77.098659,-12.044762],[-77.098693,-12.044443],[-77.098754,-12.043816],[-77.098765,-12.04371],[-77.09882,-12.043483],[-77.098886,-12.042807],[-77.098916,-12.04245],[-77.099009,-12.042457],[-77.099102,-12.042441],[-77.099116,-12.042502],[-77.099119,-12.042581],[-77.099067,-12.043152],[-77.099041,-12.043465],[-77.098998,-12.043965],[-77.098973,-12.044241],[-77.098978,-12.044349],[-77.098994,-12.044421],[-77.099028,-12.044508],[-77.099056,-12.04458],[-77.099075,-12.044644],[-77.099086,-12.044711],[-77.099088,-12.044776],[-77.099077,-12.044844],[-77.099058,-12.044913],[-77.099038,-12.044961],[-77.099005,-12.045021],[-77.098981,-12.045049],[-77.098953,-12.045082],[-77.098888,-12.045024],[-77.098848,-12.045061],[-77.098811,-12.045088],[-77.098656,-12.045114]]]},"properties":{"ID":"E4-06","tipo":"inicial"}},{"type":"Feature","geometry":{"type":"Polygon","coordinates":[[[-77.097761,-12.052326],[-77.097926,-12.052353],[-77.097947,-12.052347],[-77.09802,-12.052276],[-77.098062,-12.052292],[-77.09802,-12.052543],[-77.097985,-12.052824],[-77.097964,-12.052821],[-77.097906,-12.053175],[-77.097876,-12.053372],[-77.097782,-12.053357],[-77.097762,-12.053331],[-77.097721,-12.053324],[-77.097723,-12.053304],[-77.097819,-12.053237],[-77.09785,-12.053017],[-77.0979,-12.052659],[-77.097883,-12.05262],[-77.097875,-12.05258],[-77.097857,-12.052495],[-77.097803,-12.052461],[-77.097827,-12.052422],[-77.097751,-12.052398],[-77.097761,-12.052326]]]},"properties":{"ID":"E4-08","tipo":"inicial"}},{"type":"Feature","geometry":{"type":"Polygon","coordinates":[[[-77.098416,-12.051487],[-77.098362,-12.05195],[-77.098366,-12.051972],[-77.098359,-12.052053],[-77.098256,-12.052786],[-77.098116,-12.053803],[-77.098109,-12.053926],[-77.098125,-12.054016],[-77.098158,-12.054111],[-77.098209,-12.054182],[-77.098244,-12.05421],[-77.098191,-12.054263],[-77.098147,-12.054213],[-77.098034,-12.054207],[-77.097982,-12.054801],[-77.097929,-12.05478],[-77.097928,-12.05476],[-77.097923,-12.054735],[-77.097898,-12.054618],[-77.097869,-12.054458],[-77.097876,-12.054369],[-77.09789,-12.054164],[-77.097904,-12.053973],[-77.097907,-12.053883],[-77.097905,-12.053797],[-77.097914,-12.053716],[-77.097966,-12.053395],[-77.098009,-12.053141],[-77.098033,-12.052977],[-77.098096,-12.052602],[-77.098134,-12.052282],[-77.098162,-12.052038],[-77.098183,-12.051965],[-77.098211,-12.051848],[-77.09823,-12.051706],[-77.098258,-12.051471],[-77.098416,-12.051487]]]},"properties":{"ID":"E4-08","tipo":"inicial"}},{"type":"Feature","geometry":{"type":"Polygon","coordinates":[[[-77.097828,-12.054657],[-77.097841,-12.054745],[-77.097876,-12.054937],[-77.097883,-12.055009],[-77.097899,-12.055191],[-77.097894,-12.055259],[-77.097847,-12.055589],[-77.097812,-12.055842],[-77.097756,-12.055838],[-77.097727,-12.055859],[-77.097706,-12.055783],[-77.097688,-12.055707],[-77.097706,-12.055485],[-77.097737,-12.055143],[-77.097749,-12.05499],[-77.097778,-12.054631],[-77.097828,-12.054657]]]},"properties":{"ID":"PV4-07BIS","tipo":"inicial"}},{"type":"Feature","geometry":{"type":"Polygon","coordinates":[[[-77.106455,-12.009822],[-77.106736,-12.009192],[-77.107377,-12.007878],[-77.10783,-12.00695],[-77.107969,-12.006674],[-77.108255,-12.006107],[-77.108562,-12.005492],[-77.108715,-12.005182],[-77.108779,-12.005163],[-77.108807,-12.005109],[-77.108791,-12.005066],[-77.108799,-12.005051],[-77.108785,-12.005044],[-77.109531,-12.003543],[-77.111603,-12.004532],[-77.109791,-12.008252],[-77.108868,-12.010147],[-77.108538,-12.010821],[-77.1081,-12.010611],[-77.107394,-12.010273],[-77.106455,-12.009822]]]},"properties":{"ID":"PTBN","tipo":"inicial"}},{"type":"Feature","geometry":{"type":"Polygon","coordinates":[[[-77.102025,-12.030516],[-77.102005,-12.030561],[-77.102074,-12.030588],[-77.102022,-12.03066],[-77.101879,-12.03093],[-77.10178,-12.03088],[-77.101478,-12.031491],[-77.101408,-12.031456],[-77.101437,-12.0314],[-77.101424,-12.031358],[-77.101344,-12.031322],[-77.101398,-12.03104],[-77.101453,-12.03082],[-77.101487,-12.030719],[-77.101635,-12.030376],[-77.101776,-12.03036],[-77.101834,-12.030327],[-77.101891,-12.030366],[-77.101929,-12.030434],[-77.101977,-12.030492],[-77.102025,-12.030516]]]},"properties":{"ID":"PV4-05","tipo":"inicial"}},{"type":"Feature","geometry":{"type":"Polygon","coordinates":[[[-77.100395,-12.033692],[-77.100698,-12.033074],[-77.101062,-12.032342],[-77.101469,-12.031515],[-77.101478,-12.031491],[-77.10178,-12.03088],[-77.101879,-12.03093],[-77.102022,-12.03066],[-77.102074,-12.030588],[-77.102005,-12.030561],[-77.102025,-12.030516],[-77.102095,-12.030372],[-77.102058,-12.030309],[-77.102247,-12.029929],[-77.102347,-12.029726],[-77.102404,-12.029752],[-77.102411,-12.029733],[-77.103602,-12.030258],[-77.103668,-12.030286],[-77.103707,-12.030311],[-77.103736,-12.030337],[-77.103767,-12.030386],[-77.103761,-12.030389],[-77.103771,-12.030419],[-77.103693,-12.030581],[-77.10359,-12.030784],[-77.103512,-12.030942],[-77.103123,-12.030756],[-77.103019,-12.030968],[-77.102875,-12.031259],[-77.103355,-12.031493],[-77.102884,-12.032445],[-77.102682,-12.032853],[-77.102479,-12.033262],[-77.102934,-12.033479],[-77.102938,-12.033528],[-77.102809,-12.033782],[-77.102641,-12.034125],[-77.102368,-12.034672],[-77.10221,-12.034996],[-77.102151,-12.034968],[-77.101876,-12.035522],[-77.101364,-12.035276],[-77.101605,-12.034793],[-77.100289,-12.034181],[-77.1002,-12.034138],[-77.100263,-12.033985],[-77.100309,-12.033987],[-77.10041,-12.03377],[-77.100379,-12.033731],[-77.100395,-12.033692]]]},"properties":{"ID":"DOVELAS","tipo":"inicial"}},{"type":"Feature","geometry":{"type":"Polygon","coordinates":[[[-77.120175,-11.999448],[-77.120006,-11.999511],[-77.119789,-11.999593],[-77.119375,-11.999748],[-77.119162,-11.999828],[-77.118973,-11.999899],[-77.118877,-11.999929],[-77.118721,-11.999988],[-77.118677,-11.999983],[-77.1186,-11.999788],[-77.118607,-11.999785],[-77.118622,-11.99977],[-77.118621,-11.999749],[-77.11855,-11.999551],[-77.118678,-11.999507],[-77.118885,-11.999458],[-77.11902,-11.999424],[-77.11915,-11.999385],[-77.119262,-11.999349],[-77.119394,-11.999303],[-77.119577,-11.999231],[-77.120004,-11.999076],[-77.12003,-11.999085],[-77.120052,-11.999095],[-77.120075,-11.999116],[-77.120175,-11.999448]]]},"properties":{"ID":"PV4-01","tipo":"inicial"}},{"type":"Feature","geometry":{"type":"Polygon","coordinates":[[[-77.113732,-12.006502],[-77.113724,-12.00653],[-77.113693,-12.006598],[-77.113584,-12.006812],[-77.113314,-12.007359],[-77.112932,-12.008149],[-77.112894,-12.008153],[-77.112733,-12.008073],[-77.112807,-12.007929],[-77.112832,-12.007911],[-77.112909,-12.007751],[-77.112907,-12.007712],[-77.113128,-12.007263],[-77.113133,-12.007243],[-77.113015,-12.00718],[-77.113009,-12.00719],[-77.112877,-12.007123],[-77.113055,-12.006779],[-77.113198,-12.006851],[-77.113282,-12.006691],[-77.113436,-12.006769],[-77.113596,-12.006421],[-77.113713,-12.006475],[-77.113732,-12.006502]]]},"properties":{"ID":"PV4-02","tipo":"inicial"}},{"type":"Feature","geometry":{"type":"Polygon","coordinates":[[[-77.109318,-12.015514],[-77.10911,-12.01592],[-77.108777,-12.016618],[-77.108756,-12.016661],[-77.108743,-12.016665],[-77.108577,-12.016585],[-77.108581,-12.016578],[-77.108436,-12.016508],[-77.108798,-12.015773],[-77.108638,-12.0157],[-77.108802,-12.015377],[-77.10881,-12.015381],[-77.108831,-12.015342],[-77.108959,-12.015382],[-77.109052,-12.015419],[-77.109145,-12.015434],[-77.109318,-12.015514]]]},"properties":{"ID":"PV4-03","tipo":"inicial"}},{"type":"Feature","geometry":{"type":"Polygon","coordinates":[[[-77.099767,-12.038001],[-77.099815,-12.03809],[-77.099811,-12.038234],[-77.099862,-12.03824],[-77.099857,-12.038294],[-77.100042,-12.038314],[-77.100036,-12.038362],[-77.100012,-12.038554],[-77.099987,-12.038671],[-77.099806,-12.038646],[-77.099774,-12.038654],[-77.099677,-12.038808],[-77.099573,-12.038846],[-77.099485,-12.038838],[-77.099527,-12.038473],[-77.099556,-12.03814],[-77.099566,-12.037973],[-77.099767,-12.038001]]]},"properties":{"ID":"PV4-06","tipo":"inicial"}},{"type":"Feature","geometry":{"type":"Polygon","coordinates":[[[-77.0984,-12.047661],[-77.098392,-12.047747],[-77.098374,-12.047941],[-77.098346,-12.04827],[-77.098294,-12.048264],[-77.098286,-12.048284],[-77.09827,-12.048297],[-77.098107,-12.048282],[-77.09805,-12.048276],[-77.09808,-12.047905],[-77.098267,-12.047922],[-77.098288,-12.047652],[-77.0984,-12.047661]]]},"properties":{"ID":"PV4-07","tipo":"inicial"}},{"type":"Feature","geometry":{"type":"Polygon","coordinates":[[[-77.099279,-12.035329],[-77.099263,-12.035441],[-77.099255,-12.035486],[-77.099245,-12.03551],[-77.099227,-12.035511],[-77.098956,-12.035362],[-77.098974,-12.035278],[-77.099279,-12.035329]]]},"properties":{"ID":"E4-06","tipo":"inicial"}},{"type":"Feature","geometry":{"type":"Polygon","coordinates":[[[-77.110242,-12.012253],[-77.110233,-12.012224],[-77.110209,-12.012169],[-77.110159,-12.012097],[-77.110085,-12.01202],[-77.109979,-12.01193],[-77.109846,-12.011831],[-77.109694,-12.011728],[-77.10958,-12.011664],[-77.10936,-12.011544],[-77.10893,-12.011303],[-77.108571,-12.011123],[-77.107746,-12.010729],[-77.106337,-12.010061],[-77.106455,-12.009822],[-77.108028,-12.010578],[-77.1081,-12.010611],[-77.108538,-12.010821],[-77.108582,-12.010843],[-77.108546,-12.010907],[-77.10892,-12.011096],[-77.109061,-12.011136],[-77.10915,-12.01118],[-77.109488,-12.011356],[-77.10981,-12.01151],[-77.10999,-12.011552],[-77.110139,-12.011566],[-77.110333,-12.011567],[-77.110488,-12.011559],[-77.110578,-12.011538],[-77.110242,-12.012253]]]},"properties":{"ID":"TR PTBN","tipo":"inicial"}},{"type":"Feature","geometry":{"type":"Polygon","coordinates":[[[-77.047891,-12.058199],[-77.047904,-12.058229],[-77.048238,-12.058129],[-77.04826,-12.058109],[-77.048275,-12.057949],[-77.04834,-12.057952],[-77.048329,-12.058043],[-77.048336,-12.058058],[-77.048962,-12.057871],[-77.048953,-12.057823],[-77.048982,-12.057783],[-77.049237,-12.057807],[-77.049309,-12.057805],[-77.04955,-12.05774],[-77.050177,-12.057558],[-77.050921,-12.057336],[-77.050983,-12.057527],[-77.050595,-12.05764],[-77.049541,-12.057961],[-77.04949,-12.057951],[-77.048296,-12.058311],[-77.047713,-12.058485],[-77.047394,-12.058578],[-77.047331,-12.058386],[-77.047551,-12.058318],[-77.047561,-12.058298],[-77.047891,-12.058199]]]},"properties":{"ID":"TVPM","tipo":"inicial"}}]}